1 29089U 91082CJ  18079.13523240  .00008879  00000-0  11698-2 0  9992
2 29089  98.6228 193.8055 0007109  72.2177  52.4163 14.80364630723456
1 29089U 91082CJ  18079.25301031 +.00009294 +00000-0 +12239-2 0  9991
2 29089 098.6229 193.9321 0007034 071.6491 320.2877 14.80367983723477
1 29089U 91082CJ  18081.28027733  .00007329  00000-0  96640-3 0  9997
2 29089  98.6224 196.1096 0006611  64.2427 325.3300 14.80399921723769
1 29089U 91082CJ  18082.29876361  .00008204  00000-0  10803-2 0  9997
2 29089  98.6222 197.2035 0006393  60.3553 353.9672 14.80416830723922
1 29089U 91082CJ  18083.12298817 +.00007394 +00000-0 +97434-3 0  9999
2 29089 098.6221 198.0887 0006221 057.2753 067.1400 14.80426949724041
1 29089U 91082CJ  18084.25428052 +.00009228 +00000-0 +12132-2 0  9999
2 29089 098.6219 199.3038 0005985 052.8130 337.3050 14.80447357724214
1 29089U 91082CJ  18085.26813237 +.00009817 +00000-0 +12894-2 0  9993
2 29089 098.6219 200.3928 0005794 048.9676 341.3884 14.80465889724360
1 29089U 91082CJ  18086.28177708  .00008868  00000-0  11653-2 0  9999
2 29089  98.6220 201.4815 0005570  44.4733 345.0868 14.80483366724516
1 29089U 91082CJ  18086.77833786 +.00008314 +00000-0 +10928-2 0  9998
2 29089 098.6221 202.0149 0005474 042.2416 112.2855 14.80491555724587
1 29089U 91082CJ  18087.30038745  .00006661  00000-0  87719-3 0  9996
2 29089  98.6220 202.5759 0005348  39.9414  15.3325 14.80497048724666
1 29089U 91082CJ  18087.79221869 +.00006524 +00000-0 +85918-3 0  9997
2 29089 098.6221 203.1037 0005305 038.8488 116.2256 14.80504324724733
1 29089U 91082CJ  18088.80524144  .00006870  00000-0  90406-3 0  9994
2 29089  98.6224 204.1917 0005128  33.9861 117.1120 14.80518121724884
1 29089U 91082CJ  18090.54560451  .00007472  00000-0  98199-3 0  9995
2 29089  98.6227 206.0611 0004884  26.4822  35.0498 14.80542593725147
1 29089U 91082CJ  18091.56047549  .00006803  00000-0  89452-3 0  9995
2 29089  98.6227 207.1511 0004721  20.6085  46.9331 14.80556363725298
1 29089U 91082CJ  18092.85609177  .00006409  00000-0  84288-3 0  9993
2 29089  98.6226 208.5429 0004556  13.1108 115.9891 14.80574219725488
